{
  "type": "FeatureCollection",
  "features": [
    {
      "type": "Feature",
      "properties": {
        "norad_id": 34852,
        "name": "COSMOS 2251 DEB",
        "group": "cosmos-2251-debris",
        "lat": -28.558460567106348,
        "lon": -123.7813277213985,
        "alt_km": 762.4889808392145,
        "timestamp": "2025-12-22T09:53:37.795391+00:00",
        "meta_object_name": "COSMOS 2251 DEB",
        "meta_object_id": "1993-036ABW",
        "meta_epoch": "2025-12-21T10:38:26.088000",
        "meta_mean_motion": 14.37011249,
        "meta_eccentricity": 0.00165692,
        "meta_inclination": 74.0325,
        "meta_ra_of_asc_node": 246.9652,
        "meta_arg_of_pericenter": 348.3014,
        "meta_mean_anomaly": 11.7752,
        "meta_ephemeris_type": 0,
        "meta_classification_type": "U",
        "meta_norad_cat_id": 34852,
        "meta_element_set_no": 999,
        "meta_rev_at_epoch": 87659,
        "meta_bstar": 9.6957767e-05,
        "meta_mean_motion_dot": 2.62e-06,
        "meta_mean_motion_ddot": 0,
        "tle_line1": "1 34852U 93036ABW 25355.44335750  .00000262  00000+0  96958-4 0  9994",
        "tle_line2": "2 34852  74.0325 246.9652 0016569 348.3014  11.7752 14.37011249876599"
      },
      "geometry": {
        "type": "Point",
        "coordinates": [
          -123.7813277213985,
          -28.558460567106348
        ]
      }
    },
    {
      "type": "Feature",
      "properties": {
        "norad_id": 34854,
        "name": "COSMOS 2251 DEB",
        "group": "cosmos-2251-debris",
        "lat": 6.6266671629973946,
        "lon": -42.28429431380329,
        "alt_km": 630.2090066895926,
        "timestamp": "2025-12-22T09:53:37.795400+00:00",
        "meta_object_name": "COSMOS 2251 DEB",
        "meta_object_id": "1993-036ABY",
        "meta_epoch": "2025-12-20T16:27:30.286080",
        "meta_mean_motion": 14.76695376,
        "meta_eccentricity": 0.00660109,
        "meta_inclination": 74.029,
        "meta_ra_of_asc_node": 143.0056,
        "meta_arg_of_pericenter": 253.0888,
        "meta_mean_anomaly": 106.3042,
        "meta_ephemeris_type": 0,
        "meta_classification_type": "U",
        "meta_norad_cat_id": 34854,
        "meta_element_set_no": 999,
        "meta_rev_at_epoch": 71999,
        "meta_bstar": 0.00047616561,
        "meta_mean_motion_dot": 3.419e-05,
        "meta_mean_motion_ddot": 0,
        "tle_line1": "1 34854U 93036ABY 25354.68576720  .00003419  00000+0  47617-3 0  9999",
        "tle_line2": "2 34854  74.0290 143.0056 0066010 253.0888 106.3042 14.76695376719999"
      },
      "geometry": {
        "type": "Point",
        "coordinates": [
          -42.28429431380329,
          6.6266671629973946
        ]
      }
    },
    {
      "type": "Feature",
      "properties": {
        "norad_id": 34856,
        "name": "COSMOS 2251 DEB",
        "group": "cosmos-2251-debris",
        "lat": -17.96335299180214,
        "lon": -109.70873407936008,
        "alt_km": 529.7371249533653,
        "timestamp": "2025-12-22T09:53:37.795410+00:00",
        "meta_object_name": "COSMOS 2251 DEB",
        "meta_object_id": "1993-036ACA",
        "meta_epoch": "2025-12-22T04:21:55.175904",
        "meta_mean_motion": 15.06507346,
        "meta_eccentricity": 0.0031523,
        "meta_inclination": 73.9965,
        "meta_ra_of_asc_node": 65.4259,
        "meta_arg_of_pericenter": 201.8113,
        "meta_mean_anomaly": 188.0228,
        "meta_ephemeris_type": 0,
        "meta_classification_type": "U",
        "meta_norad_cat_id": 34856,
        "meta_element_set_no": 999,
        "meta_rev_at_epoch": 89254,
        "meta_bstar": 0.0017889,
        "meta_mean_motion_dot": 0.00026797,
        "meta_mean_motion_ddot": 0,
        "tle_line1": "1 34856U 93036ACA 25356.18188861  .00026797  00000+0  17889-2 0  9994",
        "tle_line2": "2 34856  73.9965  65.4259 0031523 201.8113 188.0228 15.06507346892542"
      },
      "geometry": {
        "type": "Point",
        "coordinates": [
          -109.70873407936008,
          -17.96335299180214
        ]
      }
    },
    {
      "type": "Feature",
      "properties": {
        "norad_id": 34857,
        "name": "COSMOS 2251 DEB",
        "group": "cosmos-2251-debris",
        "lat": 0.7762545737670091,
        "lon": 88.60309790613937,
        "alt_km": 739.0361073813247,
        "timestamp": "2025-12-22T09:53:37.795420+00:00",
        "meta_object_name": "COSMOS 2251 DEB",
        "meta_object_id": "1993-036ACB",
        "meta_epoch": "2025-12-21T06:02:52.653120",
        "meta_mean_motion": 14.5896988,
        "meta_eccentricity": 0.0065499,
        "meta_inclination": 74.0163,
        "meta_ra_of_asc_node": 90.5928,
        "meta_arg_of_pericenter": 213.4962,
        "meta_mean_anomaly": 175.5877,
        "meta_ephemeris_type": 0,
        "meta_classification_type": "U",
        "meta_norad_cat_id": 34857,
        "meta_element_set_no": 999,
        "meta_rev_at_epoch": 88025,
        "meta_bstar": 0.00077727,
        "meta_mean_motion_dot": 3.728e-05,
        "meta_mean_motion_ddot": 0,
        "tle_line1": "1 34857U 93036ACB 25355.25199830  .00003728  00000+0  77727-3 0  9997",
        "tle_line2": "2 34857  74.0163  90.5928 0065499 213.4962 175.5877 14.58969880880254"
      },
      "geometry": {
        "type": "Point",
        "coordinates": [
          88.60309790613937,
          0.7762545737670091
        ]
      }
    },
    {
      "type": "Feature",
      "properties": {
        "norad_id": 34859,
        "name": "COSMOS 2251 DEB",
        "group": "cosmos-2251-debris",
        "lat": 56.088036009738154,
        "lon": 114.29881848228415,
        "alt_km": 512.406847813465,
        "timestamp": "2025-12-22T09:53:37.795430+00:00",
        "meta_object_name": "COSMOS 2251 DEB",
        "meta_object_id": "1993-036ACD",
        "meta_epoch": "2025-12-20T00:39:03.765024",
        "meta_mean_motion": 15.15832734,
        "meta_eccentricity": 0.00020914,
        "meta_inclination": 74.0278,
        "meta_ra_of_asc_node": 324.4843,
        "meta_arg_of_pericenter": 20.5726,
        "meta_mean_anomaly": 48.6407,
        "meta_ephemeris_type": 0,
        "meta_classification_type": "U",
        "meta_norad_cat_id": 34859,
        "meta_element_set_no": 999,
        "meta_rev_at_epoch": 88469,
        "meta_bstar": 0.0027292363,
        "meta_mean_motion_dot": 0.00052535,
        "meta_mean_motion_ddot": 0,
        "tle_line1": "1 34859U 93036ACD 25354.02712691  .00052535  00000+0  27292-2 0  9990",
        "tle_line2": "2 34859  74.0278 324.4843 0002091  20.5726  48.6407 15.15832734884694"
      },
      "geometry": {
        "type": "Point",
        "coordinates": [
          114.29881848228415,
          56.088036009738154
        ]
      }
    },
    {
      "type": "Feature",
      "properties": {
        "norad_id": 34861,
        "name": "COSMOS 2251 DEB",
        "group": "cosmos-2251-debris",
        "lat": -49.8928862737849,
        "lon": 11.191004234711805,
        "alt_km": 562.2883532740225,
        "timestamp": "2025-12-22T09:53:37.795440+00:00",
        "meta_object_name": "COSMOS 2251 DEB",
        "meta_object_id": "1993-036ACF",
        "meta_epoch": "2025-12-21T20:31:48.902304",
        "meta_mean_motion": 15.03073934,
        "meta_eccentricity": 0.0008148,
        "meta_inclination": 74.0179,
        "meta_ra_of_asc_node": 32.222,
        "meta_arg_of_pericenter": 22.2074,
        "meta_mean_anomaly": 153.5336,
        "meta_ephemeris_type": 0,
        "meta_classification_type": "U",
        "meta_norad_cat_id": 34861,
        "meta_element_set_no": 999,
        "meta_rev_at_epoch": 88229,
        "meta_bstar": 0.0019691,
        "meta_mean_motion_dot": 0.00026634,
        "meta_mean_motion_ddot": 0,
        "tle_line1": "1 34861U 93036ACF 25355.85542711  .00026634  00000+0  19691-2 0  9994",
        "tle_line2": "2 34861  74.0179  32.2220 0008148  22.2074 153.5336 15.03073934882291"
      },
      "geometry": {
        "type": "Point",
        "coordinates": [
          11.191004234711805,
          -49.8928862737849
        ]
      }
    },
    {
      "type": "Feature",
      "properties": {
        "norad_id": 34874,
        "name": "COSMOS 2251 DEB",
        "group": "cosmos-2251-debris",
        "lat": 68.06864453907497,
        "lon": -169.29717271360562,
        "alt_km": 731.3669949554005,
        "timestamp": "2025-12-22T09:53:37.795450+00:00",
        "meta_object_name": "COSMOS 2251 DEB",
        "meta_object_id": "1993-036ACM",
        "meta_epoch": "2025-12-22T04:32:10.055328",
        "meta_mean_motion": 14.36351572,
        "meta_eccentricity": 0.0050558,
        "meta_inclination": 74.0394,
        "meta_ra_of_asc_node": 56.4116,
        "meta_arg_of_pericenter": 78.6258,
        "meta_mean_anomaly": 312.4475,
        "meta_ephemeris_type": 0,
        "meta_classification_type": "U",
        "meta_norad_cat_id": 34874,
        "meta_element_set_no": 999,
        "meta_rev_at_epoch": 87180,
        "meta_bstar": 0.00076191,
        "meta_mean_motion_dot": 2.237e-05,
        "meta_mean_motion_ddot": 0,
        "tle_line1": "1 34874U 93036ACM 25356.18900527  .00002237  00000+0  76191-3 0  9990",
        "tle_line2": "2 34874  74.0394  56.4116 0050558  78.6258 312.4475 14.36351572871804"
      },
      "geometry": {
        "type": "Point",
        "coordinates": [
          -169.29717271360562,
          68.06864453907497
        ]
      }
    }
  ]
}